CCSDS_OMM_VERS = 2.0
CREATION_DATE  = 
ORIGINATOR     = 

OBJECT_NAME    = ORBVIEW 2 (SEASTAR)
OBJECT_ID      = 1997-037A
CENTER_NAME    = EARTH
REF_FRAME      = TEME
TIME_SYSTEM    = UTC
MEAN_ELEMENT_THEORY = SGP/SGP4

EPOCH          = 2025-11-26T01:06:47.145600
MEAN_MOTION    = 14.35398293
ECCENTRICITY   = .0002473
INCLINATION    = 98.8452
RA_OF_ASC_NODE = 126.7015
ARG_OF_PERICENTER = 30.0548
MEAN_ANOMALY   = 330.0778

EPHEMERIS_TYPE = 0
CLASSIFICATION_TYPE = U
NORAD_CAT_ID   = 24883
ELEMENT_SET_NO = 999
REV_AT_EPOCH   = 49360
BSTAR          = .14443E-3
MEAN_MOTION_DOT = .368E-5
MEAN_MOTION_DDOT = 0

CCSDS_OMM_VERS = 2.0
CREATION_DATE  = 
ORIGINATOR     = 

OBJECT_NAME    = SL-16 R/B
OBJECT_ID      = 1998-043G
CENTER_NAME    = EARTH
REF_FRAME      = TEME
TIME_SYSTEM    = UTC
MEAN_ELEMENT_THEORY = SGP/SGP4

EPOCH          = 2025-11-26T02:22:48.840096
MEAN_MOTION    = 14.26019447
ECCENTRICITY   = .0009135
INCLINATION    = 98.8099
RA_OF_ASC_NODE = 277.8264
ARG_OF_PERICENTER = 320.2829
MEAN_ANOMALY   = 39.7680

EPHEMERIS_TYPE = 0
CLASSIFICATION_TYPE = U
NORAD_CAT_ID   = 25400
ELEMENT_SET_NO = 999
REV_AT_EPOCH   = 42422
BSTAR          = .64744E-4
MEAN_MOTION_DOT = .109E-5
MEAN_MOTION_DDOT = 0

CCSDS_OMM_VERS = 2.0
CREATION_DATE  = 
ORIGINATOR     = 

OBJECT_NAME    = SL-16 R/B
OBJECT_ID      = 1998-045B
CENTER_NAME    = EARTH
REF_FRAME      = TEME
TIME_SYSTEM    = UTC
MEAN_ELEMENT_THEORY = SGP/SGP4

EPOCH          = 2025-11-26T03:58:40.111392
MEAN_MOTION    = 14.16171030
ECCENTRICITY   = .0007945
INCLINATION    = 71.0126
RA_OF_ASC_NODE = 39.2813
ARG_OF_PERICENTER = 200.2261
MEAN_ANOMALY   = 159.8549

EPHEMERIS_TYPE = 0
CLASSIFICATION_TYPE = U
NORAD_CAT_ID   = 25407
ELEMENT_SET_NO = 999
REV_AT_EPOCH   = 41244
BSTAR          = .17542E-3
MEAN_MOTION_DOT = .3E-5
MEAN_MOTION_DDOT = 0

CCSDS_OMM_VERS = 2.0
CREATION_DATE  = 
ORIGINATOR     = 

OBJECT_NAME    = ISS (ZARYA)
OBJECT_ID      = 1998-067A
CENTER_NAME    = EARTH
REF_FRAME      = TEME
TIME_SYSTEM    = UTC
MEAN_ELEMENT_THEORY = SGP/SGP4

EPOCH          = 2025-11-25T21:35:15.221472
MEAN_MOTION    = 15.49084902
ECCENTRICITY   = .00038342
INCLINATION    = 51.6312
RA_OF_ASC_NODE = 225.8381
ARG_OF_PERICENTER = 168.1565
MEAN_ANOMALY   = 191.9514

EPHEMERIS_TYPE = 0
CLASSIFICATION_TYPE = U
NORAD_CAT_ID   = 25544
ELEMENT_SET_NO = 999
REV_AT_EPOCH   = 54024
BSTAR          = .23568474E-3
MEAN_MOTION_DOT = .12595E-3
MEAN_MOTION_DDOT = 0

CCSDS_OMM_VERS = 2.0
CREATION_DATE  = 
ORIGINATOR     = 

OBJECT_NAME    = CZ-4B R/B
OBJECT_ID      = 1999-025C
CENTER_NAME    = EARTH
REF_FRAME      = TEME
TIME_SYSTEM    = UTC
MEAN_ELEMENT_THEORY = SGP/SGP4

EPOCH          = 2025-11-26T02:21:11.298816
MEAN_MOTION    = 14.18237499
ECCENTRICITY   = .0036031
INCLINATION    = 98.6791
RA_OF_ASC_NODE = 11.7484
ARG_OF_PERICENTER = 283.1799
MEAN_ANOMALY   = 130.6606

EPHEMERIS_TYPE = 0
CLASSIFICATION_TYPE = U
NORAD_CAT_ID   = 25732
ELEMENT_SET_NO = 999
REV_AT_EPOCH   = 37348
BSTAR          = .72006E-4
MEAN_MOTION_DOT = .106E-5
MEAN_MOTION_DDOT = 0

CCSDS_OMM_VERS = 2.0
CREATION_DATE  = 
ORIGINATOR     = 

OBJECT_NAME    = OKEAN-O
OBJECT_ID      = 1999-039A
CENTER_NAME    = EARTH
REF_FRAME      = TEME
TIME_SYSTEM    = UTC
MEAN_ELEMENT_THEORY = SGP/SGP4

EPOCH          = 2025-11-26T03:49:32.402784
MEAN_MOTION    = 14.80118927
ECCENTRICITY   = .0001026
INCLINATION    = 97.9625
RA_OF_ASC_NODE = 26.0029
ARG_OF_PERICENTER = 70.4571
MEAN_ANOMALY   = 289.6751

EPHEMERIS_TYPE = 0
CLASSIFICATION_TYPE = U
NORAD_CAT_ID   = 25860
ELEMENT_SET_NO = 999
REV_AT_EPOCH   = 41907
BSTAR          = .12604E-3
MEAN_MOTION_DOT = .904E-5
MEAN_MOTION_DDOT = 0

CCSDS_OMM_VERS = 2.0
CREATION_DATE  = 
ORIGINATOR     = 

OBJECT_NAME    = SL-16 R/B
OBJECT_ID      = 1999-039B
CENTER_NAME    = EARTH
REF_FRAME      = TEME
TIME_SYSTEM    = UTC
MEAN_ELEMENT_THEORY = SGP/SGP4

EPOCH          = 2025-11-26T04:05:26.726208
MEAN_MOTION    = 14.81550572
ECCENTRICITY   = .0013785
INCLINATION    = 98.0148
RA_OF_ASC_NODE = 24.3188
ARG_OF_PERICENTER = 229.9817
MEAN_ANOMALY   = 130.0187

EPHEMERIS_TYPE = 0
CLASSIFICATION_TYPE = U
NORAD_CAT_ID   = 25861
ELEMENT_SET_NO = 999
REV_AT_EPOCH   = 42153
BSTAR          = .10458E-3
MEAN_MOTION_DOT = .768E-5
MEAN_MOTION_DDOT = 0

CCSDS_OMM_VERS = 2.0
CREATION_DATE  = 
ORIGINATOR     = 

OBJECT_NAME    = DELTA 2 R/B
OBJECT_ID      = 1999-041E
CENTER_NAME    = EARTH
REF_FRAME      = TEME
TIME_SYSTEM    = UTC
MEAN_ELEMENT_THEORY = SGP/SGP4

EPOCH          = 2025-11-26T01:44:14.761248
MEAN_MOTION    = 14.11337958
ECCENTRICITY   = .0504905
INCLINATION    = 51.7625
RA_OF_ASC_NODE = 354.9775
ARG_OF_PERICENTER = 42.6503
MEAN_ANOMALY   = 321.2498

EPHEMERIS_TYPE = 0
CLASSIFICATION_TYPE = U
NORAD_CAT_ID   = 25876
ELEMENT_SET_NO = 999
REV_AT_EPOCH   = 34839
BSTAR          = .19336E-3
MEAN_MOTION_DOT = .953E-5
MEAN_MOTION_DDOT = 0

CCSDS_OMM_VERS = 2.0
CREATION_DATE  = 
ORIGINATOR     = 

OBJECT_NAME    = HELIOS 1B
OBJECT_ID      = 1999-064A
CENTER_NAME    = EARTH
REF_FRAME      = TEME
TIME_SYSTEM    = UTC
MEAN_ELEMENT_THEORY = SGP/SGP4

EPOCH          = 2025-11-26T04:26:49.966656
MEAN_MOTION    = 14.87179223
ECCENTRICITY   = .0002395
INCLINATION    = 98.1750
RA_OF_ASC_NODE = 224.3609
ARG_OF_PERICENTER = 64.9105
MEAN_ANOMALY   = 295.2358

EPHEMERIS_TYPE = 0
CLASSIFICATION_TYPE = U
NORAD_CAT_ID   = 25977
ELEMENT_SET_NO = 999
REV_AT_EPOCH   = 66987
BSTAR          = .29638E-3
MEAN_MOTION_DOT = .2608E-4
MEAN_MOTION_DDOT = 0

CCSDS_OMM_VERS = 2.0
CREATION_DATE  = 
ORIGINATOR     = 

OBJECT_NAME    = TERRA
OBJECT_ID      = 1999-068A
CENTER_NAME    = EARTH
REF_FRAME      = TEME
TIME_SYSTEM    = UTC
MEAN_ELEMENT_THEORY = SGP/SGP4

EPOCH          = 2025-11-26T03:38:49.726752
MEAN_MOTION    = 14.60924187
ECCENTRICITY   = .000316
INCLINATION    = 97.9771
RA_OF_ASC_NODE = 22.4428
ARG_OF_PERICENTER = 131.6146
MEAN_ANOMALY   = 250.4694

EPHEMERIS_TYPE = 0
CLASSIFICATION_TYPE = U
NORAD_CAT_ID   = 25994
ELEMENT_SET_NO = 999
REV_AT_EPOCH   = 37996
BSTAR          = .13666E-3
MEAN_MOTION_DOT = .625E-5
MEAN_MOTION_DDOT = 0

CCSDS_OMM_VERS = 2.0
CREATION_DATE  = 
ORIGINATOR     = 

OBJECT_NAME    = SL-16 R/B
OBJECT_ID      = 2000-006B
CENTER_NAME    = EARTH
REF_FRAME      = TEME
TIME_SYSTEM    = UTC
MEAN_ELEMENT_THEORY = SGP/SGP4

EPOCH          = 2025-11-26T03:42:12.839328
MEAN_MOTION    = 14.15802384
ECCENTRICITY   = .001753
INCLINATION    = 71.0020
RA_OF_ASC_NODE = 315.5311
ARG_OF_PERICENTER = 331.9208
MEAN_ANOMALY   = 28.0968

EPHEMERIS_TYPE = 0
CLASSIFICATION_TYPE = U
NORAD_CAT_ID   = 26070
ELEMENT_SET_NO = 999
REV_AT_EPOCH   = 33390
BSTAR          = .13529E-3
MEAN_MOTION_DOT = .218E-5
MEAN_MOTION_DDOT = 0

CCSDS_OMM_VERS = 2.0
CREATION_DATE  = 
ORIGINATOR     = 

OBJECT_NAME    = TITAN 4B R/B
OBJECT_ID      = 2000-047B
CENTER_NAME    = EARTH
REF_FRAME      = TEME
TIME_SYSTEM    = UTC
MEAN_ELEMENT_THEORY = SGP/SGP4

EPOCH          = 2025-11-26T04:03:10.477728
MEAN_MOTION    = 15.08603070
ECCENTRICITY   = .0040318
INCLINATION    = 67.9903
RA_OF_ASC_NODE = 331.3887
ARG_OF_PERICENTER = 164.2458
MEAN_ANOMALY   = 195.9956

EPHEMERIS_TYPE = 0
CLASSIFICATION_TYPE = U
NORAD_CAT_ID   = 26474
ELEMENT_SET_NO = 999
REV_AT_EPOCH   = 37729
BSTAR          = .27284E-3
MEAN_MOTION_DOT = .4224E-4
MEAN_MOTION_DDOT = 0

