ORBVIEW 2 (SEASTAR)     
1 24883U 97037A   25330.04637900  .00000368  00000+0  14443-3 0  9998
2 24883  98.8452 126.7015 0002473  30.0548 330.0778 14.35398293493608
SL-16 R/B               
1 25400U 98043G   25330.09917639  .00000109  00000+0  64744-4 0  9990
2 25400  98.8099 277.8264 0009135 320.2829  39.7680 14.26019447424221
SL-16 R/B               
1 25407U 98045B   25330.16574203  .00000300  00000+0  17542-3 0  9999
2 25407  71.0126  39.2813 0007945 200.2261 159.8549 14.16171030412441
ISS (ZARYA)             
1 25544U 98067A   25329.89948172  .00012595  00000+0  23568-3 0  9997
2 25544  51.6312 225.8381 0003834 168.1565 191.9514 15.49084902540246
CZ-4B R/B               
1 25732U 99025C   25330.09804744  .00000106  00000+0  72006-4 0  9998
2 25732  98.6791  11.7484 0036031 283.1799 130.6606 14.18237499373483
OKEAN-O                 
1 25860U 99039A   25330.15940281  .00000904  00000+0  12604-3 0  9992
2 25860  97.9625  26.0029 0001026  70.4571 289.6751 14.80118927419073
SL-16 R/B               
1 25861U 99039B   25330.17044822  .00000768  00000+0  10458-3 0  9994
2 25861  98.0148  24.3188 0013785 229.9817 130.0187 14.81550572421535
DELTA 2 R/B             
1 25876U 99041E   25330.07239307  .00000953  00000+0  19336-3 0  9996
2 25876  51.7625 354.9775 0504905  42.6503 321.2498 14.11337958348397
HELIOS 1B               
1 25977U 99064A   25330.18530054  .00002608  00000+0  29638-3 0  9993
2 25977  98.1750 224.3609 0002395  64.9105 295.2358 14.87179223669876
TERRA                   
1 25994U 99068A   25330.15196443  .00000625  00000+0  13666-3 0  9994
2 25994  97.9771  22.4428 0003160 131.6146 250.4694 14.60924187379961
SL-16 R/B               
1 26070U 00006B   25330.15431527  .00000218  00000+0  13529-3 0  9995
2 26070  71.0020 315.5311 0017530 331.9208  28.0968 14.15802384333905
TITAN 4B R/B            
1 26474U 00047B   25330.16887127  .00004224  00000+0  27284-3 0  9994
2 26474  67.9903 331.3887 0040318 164.2458 195.9956 15.08603070377290
